{"type": "FeatureCollection", "features": [ {"type": "Feature", "properties": {"norad_id": 66629, "name": "STARLINK-35956", "group": "last-30-days", "lat": 1.0667909500857684, "lon": -168.21441664656464, "alt_km": 407.95476360259454, "timestamp": "2025-12-11T22:43:46.024512+00:00", "meta": {"OBJECT_NAME": "STARLINK-35956", "OBJECT_ID": "2025-271N", "EPOCH": "2025-12-11T14:00:01.999872", "MEAN_MOTION": 15.54897249, "ECCENTRICITY": 0.00011429, "INCLINATION": 53.1601, "RA_OF_ASC_NODE": 192.7377, "ARG_OF_PERICENTER": 90.8216, "MEAN_ANOMALY": 34.6352, "EPHEMERIS_TYPE": 0, "CLASSIFICATION_TYPE": "U", "NORAD_CAT_ID": 66629, "ELEMENT_SET_NO": 999, "REV_AT_EPOCH": 405, "BSTAR": -0.033208624, "MEAN_MOTION_DOT": -0.02018424, "MEAN_MOTION_DDOT": 0}, "tle": {"line1": "1 66629U 25271N   25345.58335648 -.02018424  00000+0 -33209-1 0  9997", "line2": "2 66629  53.1601 192.7377 0001142  90.8216  34.6352 15.54897249  4053"}}, "geometry": {"type": "Point", "coordinates": [-168.21441664656464, 1.0667909500857684]}}, {"type": "Feature", "properties": {"norad_id": 66630, "name": "STARLINK-35949", "group": "last-30-days", "lat": 2.599604601304266, "lon": -167.06914582505368, "alt_km": 407.8301634155687, "timestamp": "2025-12-11T22:43:46.024525+00:00", "meta": {"OBJECT_NAME": "STARLINK-35949", "OBJECT_ID": "2025-271P", "EPOCH": "2025-12-11T14:00:01.999872", "MEAN_MOTION": 15.54901096, "ECCENTRICITY": 0.00010667, "INCLINATION": 53.1602, "RA_OF_ASC_NODE": 192.7322, "ARG_OF_PERICENTER": 100.8744, "MEAN_ANOMALY": 26.4953, "EPHEMERIS_TYPE": 0, "CLASSIFICATION_TYPE": "U", "NORAD_CAT_ID": 66630, "ELEMENT_SET_NO": 999, "REV_AT_EPOCH": 405, "BSTAR": -0.033297057, "MEAN_MOTION_DOT": -0.02023442, "MEAN_MOTION_DDOT": 0}, "tle": {"line1": "1 66630U 25271P   25345.58335648 -.02023442  00000+0 -33297-1 0  9992", "line2": "2 66630  53.1602 192.7322 0001066 100.8744  26.4953 15.54901096  4051"}}, "geometry": {"type": "Point", "coordinates": [-167.06914582505368, 2.599604601304266]}}, {"type": "Feature", "properties": {"norad_id": 66631, "name": "STARLINK-35965", "group": "last-30-days", "lat": 4.132891759858041, "lon": -165.91742778586857, "alt_km": 407.6155217108435, "timestamp": "2025-12-11T22:43:46.024537+00:00", "meta": {"OBJECT_NAME": "STARLINK-35965", "OBJECT_ID": "2025-271Q", "EPOCH": "2025-12-11T14:00:01.999872", "MEAN_MOTION": 15.54899891, "ECCENTRICITY": 0.00010908, "INCLINATION": 53.1603, "RA_OF_ASC_NODE": 192.7292, "ARG_OF_PERICENTER": 102.1126, "MEAN_ANOMALY": 27.1768, "EPHEMERIS_TYPE": 0, "CLASSIFICATION_TYPE": "U", "NORAD_CAT_ID": 66631, "ELEMENT_SET_NO": 999, "REV_AT_EPOCH": 405, "BSTAR": -0.033301792, "MEAN_MOTION_DOT": -0.02023632, "MEAN_MOTION_DDOT": 0}, "tle": {"line1": "1 66631U 25271Q   25345.58335648 -.02023632  00000+0 -33302-1 0  9991", "line2": "2 66631  53.1603 192.7292 0001090 102.1126  27.1768 15.54899891  4056"}}, "geometry": {"type": "Point", "coordinates": [-165.91742778586857, 4.132891759858041]}}, {"type": "Feature", "properties": {"norad_id": 66632, "name": "STARLINK-35973", "group": "last-30-days", "lat": 5.665598770608023, "lon": -164.76113241789096, "alt_km": 407.20932117754364, "timestamp": "2025-12-11T22:43:46.024547+00:00", "meta": {"OBJECT_NAME": "STARLINK-35973", "OBJECT_ID": "2025-271R", "EPOCH": "2025-12-11T14:00:01.999872", "MEAN_MOTION": 15.54897957, "ECCENTRICITY": 0.000114, "INCLINATION": 53.1597, "RA_OF_ASC_NODE": 192.7254, "ARG_OF_PERICENTER": 86.8694, "MEAN_ANOMALY": 44.3403, "EPHEMERIS_TYPE": 0, "CLASSIFICATION_TYPE": "U", "NORAD_CAT_ID": 66632, "ELEMENT_SET_NO": 999, "REV_AT_EPOCH": 399, "BSTAR": -0.033256155, "MEAN_MOTION_DOT": -0.02021053, "MEAN_MOTION_DDOT": 0}, "tle": {"line1": "1 66632U 25271R   25345.58335648 -.02021053  00000+0 -33256-1 0  9995", "line2": "2 66632  53.1597 192.7254 0001140  86.8694  44.3403 15.54897957  3991"}}, "geometry": {"type": "Point", "coordinates": [-164.76113241789096, 5.665598770608023]}}, {"type": "Feature", "properties": {"norad_id": 66633, "name": "STARLINK-35948", "group": "last-30-days", "lat": 7.194538806356671, "lon": -163.6016134783827, "alt_km": 407.05255248846333, "timestamp": "2025-12-11T22:43:46.024557+00:00", "meta": {"OBJECT_NAME": "STARLINK-35948", "OBJECT_ID": "2025-271S", "EPOCH": "2025-12-11T14:00:01.999872", "MEAN_MOTION": 15.54901663, "ECCENTRICITY": 0.00010186, "INCLINATION": 53.1603, "RA_OF_ASC_NODE": 192.7199, "ARG_OF_PERICENTER": 93.3127, "MEAN_ANOMALY": 39.8128, "EPHEMERIS_TYPE": 0, "CLASSIFICATION_TYPE": "U", "NORAD_CAT_ID": 66633, "ELEMENT_SET_NO": 999, "REV_AT_EPOCH": 405, "BSTAR": -0.033408589, "MEAN_MOTION_DOT": -0.02029508, "MEAN_MOTION_DDOT": 0}, "tle": {"line1": "1 66633U 25271S   25345.58335648 -.02029508  00000+0 -33409-1 0  9999", "line2": "2 66633  53.1603 192.7199 0001018  93.3127  39.8128 15.54901663  4057"}}, "geometry": {"type": "Point", "coordinates": [-163.6016134783827, 7.194538806356671]}}, {"type": "Feature", "properties": {"norad_id": 66634, "name": "STARLINK-35967", "group": "last-30-days", "lat": 8.717752414299154, "lon": -162.43497276459186, "alt_km": 406.8461799691613, "timestamp": "2025-12-11T22:43:46.024569+00:00", "meta": {"OBJECT_NAME": "STARLINK-35967", "OBJECT_ID": "2025-271T", "EPOCH": "2025-12-11T14:00:01.999872", "MEAN_MOTION": 15.54899115, "ECCENTRICITY": 0.00011673, "INCLINATION": 53.1602, "RA_OF_ASC_NODE": 192.7157, "ARG_OF_PERICENTER": 98.2125, "MEAN_ANOMALY": 36.8277, "EPHEMERIS_TYPE": 0, "CLASSIFICATION_TYPE": "U", "NORAD_CAT_ID": 66634, "ELEMENT_SET_NO": 999, "REV_AT_EPOCH": 398, "BSTAR": -0.033284622, "MEAN_MOTION_DOT": -0.02022693, "MEAN_MOTION_DDOT": 0}, "tle": {"line1": "1 66634U 25271T   25345.58335648 -.02022693  00000+0 -33285-1 0  9990", "line2": "2 66634  53.1602 192.7157 0001167  98.2125  36.8277 15.54899115  3989"}}, "geometry": {"type": "Point", "coordinates": [-162.43497276459186, 8.717752414299154]}}, {"type": "Feature", "properties": {"norad_id": 66635, "name": "STARLINK-35955", "group": "last-30-days", "lat": 10.240947505821802, "lon": -161.25501303485217, "alt_km": 406.58291556909444, "timestamp": "2025-12-11T22:43:46.024579+00:00", "meta": {"OBJECT_NAME": "STARLINK-35955", "OBJECT_ID": "2025-271U", "EPOCH": "2025-12-11T14:00:01.999872", "MEAN_MOTION": 15.54899213, "ECCENTRICITY": 0.00011403, "INCLINATION": 53.16, "RA_OF_ASC_NODE": 192.7124, "ARG_OF_PERICENTER": 96.9112, "MEAN_ANOMALY": 40.0466, "EPHEMERIS_TYPE": 0, "CLASSIFICATION_TYPE": "U", "NORAD_CAT_ID": 66635, "ELEMENT_SET_NO": 999, "REV_AT_EPOCH": 405, "BSTAR": -0.033292086, "MEAN_MOTION_DOT": -0.02023089, "MEAN_MOTION_DDOT": 0}, "tle": {"line1": "1 66635U 25271U   25345.58335648 -.02023089  00000+0 -33292-1 0  9999", "line2": "2 66635  53.1600 192.7124 0001140  96.9112  40.0466 15.54899213  4059"}}, "geometry": {"type": "Point", "coordinates": [-161.25501303485217, 10.240947505821802]}}, {"type": "Feature", "properties": {"norad_id": 66636, "name": "STARLINK-35968", "group": "last-30-days", "lat": 11.759480478898688, "lon": -160.06503176628422, "alt_km": 406.2544827097836, "timestamp": "2025-12-11T22:43:46.024589+00:00", "meta": {"OBJECT_NAME": "STARLINK-35968", "OBJECT_ID": "2025-271V", "EPOCH": "2025-12-11T14:00:01.999872", "MEAN_MOTION": 15.54899693, "ECCENTRICITY": 0.0001225, "INCLINATION": 53.1599, "RA_OF_ASC_NODE": 192.708, "ARG_OF_PERICENTER": 90.7216, "MEAN_ANOMALY": 48.1545, "EPHEMERIS_TYPE": 0, "CLASSIFICATION_TYPE": "U", "NORAD_CAT_ID": 66636, "ELEMENT_SET_NO": 999, "REV_AT_EPOCH": 405, "BSTAR": -0.033320294, "MEAN_MOTION_DOT": -0.02024705, "MEAN_MOTION_DDOT": 0}, "tle": {"line1": "1 66636U 25271V   25345.58335648 -.02024705  00000+0 -33320-1 0  9998", "line2": "2 66636  53.1599 192.7080 0001225  90.7216  48.1545 15.54899693  4058"}}, "geometry": {"type": "Point", "coordinates": [-160.06503176628422, 11.759480478898688]}}, {"type": "Feature", "properties": {"norad_id": 66637, "name": "STARLINK-35953", "group": "last-30-days", "lat": 13.272303408476951, "lon": -158.8619584412755, "alt_km": 406.1077855001713, "timestamp": "2025-12-11T22:43:46.024601+00:00", "meta": {"OBJECT_NAME": "STARLINK-35953", "OBJECT_ID": "2025-271W", "EPOCH": "2025-12-11T14:00:01.999872", "MEAN_MOTION": 15.54897067, "ECCENTRICITY": 0.00011554, "INCLINATION": 53.1601, "RA_OF_ASC_NODE": 192.7041, "ARG_OF_PERICENTER": 99.4183, "MEAN_ANOMALY": 41.3758, "EPHEMERIS_TYPE": 0, "CLASSIFICATION_TYPE": "U", "NORAD_CAT_ID": 66637, "ELEMENT_SET_NO": 999, "REV_AT_EPOCH": 405, "BSTAR": -0.033281983, "MEAN_MOTION_DOT": -0.02022406, "MEAN_MOTION_DDOT": 0}, "tle": {"line1": "1 66637U 25271W   25345.58335648 -.02022406  00000+0 -33282-1 0  9992", "line2": "2 66637  53.1601 192.7041 0001155  99.4183  41.3758 15.54897067  4055"}}, "geometry": {"type": "Point", "coordinates": [-158.8619584412755, 13.272303408476951]}}, {"type": "Feature", "properties": {"norad_id": 66638, "name": "STARLINK-35972", "group": "last-30-days", "lat": 14.779264577953022, "lon": -157.64320878625279, "alt_km": 405.88518611501513, "timestamp": "2025-12-11T22:43:46.024611+00:00", "meta": {"OBJECT_NAME": "STARLINK-35972", "OBJECT_ID": "2025-271X", "EPOCH": "2025-12-11T14:00:01.999872", "MEAN_MOTION": 15.54897755, "ECCENTRICITY": 0.00011305, "INCLINATION": 53.1598, "RA_OF_ASC_NODE": 192.7007, "ARG_OF_PERICENTER": 103.0303, "MEAN_ANOMALY": 39.6776, "EPHEMERIS_TYPE": 0, "CLASSIFICATION_TYPE": "U", "NORAD_CAT_ID": 66638, "ELEMENT_SET_NO": 999, "REV_AT_EPOCH": 405, "BSTAR": -0.033240576, "MEAN_MOTION_DOT": -0.02020187, "MEAN_MOTION_DDOT": 0}, "tle": {"line1": "1 66638U 25271X   25345.58335648 -.02020187  00000+0 -33241-1 0  9992", "line2": "2 66638  53.1598 192.7007 0001130 103.0303  39.6776 15.54897755  4056"}}, "geometry": {"type": "Point", "coordinates": [-157.64320878625279, 14.779264577953022]}}]}